IRIDIUM 57              
1 25273U 98019B   24201.49525963  .00000763  00000+0  25982-3 0  9992
2 25273  86.3955 284.5887 0002229  94.0627 266.0824 14.35288571377056
IRIDIUM 63              
1 25286U 98021B   24201.78530276  .00000655  00000+0  21954-3 0  9999
2 25286  86.3978 221.3683 0002095  91.5341 268.6096 14.35836237376409
IRIDIUM 69              
1 25319U 98026A   24201.54938274  .00000932  00000+0  28943-3 0  9998
2 25319  86.3962 235.7543 0004165  66.1756 293.9880 14.40087084375170
IRIDIUM 71              
1 25320U 98026B   24201.61192599  .00000791  00000+0  24311-3 0  9998
2 25320  86.3962 230.4827 0004421  97.6170 262.5532 14.40393617375700
IRIDIUM 73              
1 25344U 98032C   24201.51535720  .00001257  00000+0  31544-3 0  9991
2 25344  86.4447 187.9266 0002828  80.1044 280.0480 14.50637853382310
IRIDIUM 82              
1 25467U 98051A   24201.59598367  .00021910  00000+0  10587-2 0  9993
2 25467  86.3755 270.3817 0126707 101.7028 259.8460 15.11589883373387
